NAVSTAR 77 (USA 289)    
1 43873U 18109A   23283.71192419  .00000060  00000+0  00000+0 0  9990
2 43873  55.2045 130.9273 0026338 189.8421 102.2482  2.00570337 35406
